NORAD_CAT_ID,OBJECT_NAME,OBJECT_TYPE,EPOCH,MEAN_MOTION,ECCENTRICITY,INCLINATION,RA_OF_ASC_NODE,ARG_OF_PERICENTER,MEAN_ANOMALY,BSTAR,MEAN_MOTION_DOT,MEAN_MOTION_DDOT,TLE_LINE0,TLE_LINE1,TLE_LINE2,SEMIMAJOR_AXIS,PERIOD,APOGEE,PERIGEE,DECAYED
52879.0,STARLINK-4139,PAYLOAD,2022-11-19 13:11:31,15.08840959,0.0002155,53.2201,28.6819,40.8388,319.2766,1.9199e-06,-2.58e-06,0.0,0 STARLINK-4139,1 52879U 22062BB  22323.54966922 -.00000258  00000-0  19199-5 0  9998,2 52879  53.2201  28.6819 0002155  40.8388 319.2766 15.08840959 24474,6917.877,95.437,541.2330000000002,538.252,0.0
52879.0,STARLINK-4139,PAYLOAD,2022-11-20 13:02:19,15.08833689,0.000231,53.2198,24.2236,32.8327,327.2809,-7.4585e-05,-1.475e-05,0.0,0 STARLINK-4139,1 52879U 22062BB  22324.54327844 -.00001475  00000-0 -74585-4 0  9995,2 52879  53.2198  24.2236 0002310  32.8327 327.2809 15.08833689 24627,6917.9,95.438,541.363,538.1669999999998,0.0
52879.0,STARLINK-4139,PAYLOAD,2022-11-20 20:59:14,15.0883616,0.0002307,53.2198,22.737,34.6219,325.4923,-6.0055e-05,-1.244e-05,0.0,0 STARLINK-4139,1 52879U 22062BB  22324.87447711 -.00001244  00000-0 -60055-4 0  9998,2 52879  53.2198  22.7370 0002307  34.6219 325.4923 15.08836160 24180,6917.892,95.438,541.3530000000002,538.161,0.0
52879.0,STARLINK-4139,PAYLOAD,2022-11-21 12:53:06,15.08833768,0.0002411,53.22,19.7629,31.6389,328.4748,-6.130899999999999e-05,-1.264e-05,0.0,0 STARLINK-4139,1 52879U 22062BB  22325.53688254 -.00001264  00000-0 -61309-4 0  9996,2 52879  53.2200  19.7629 0002411  31.6389 328.4748 15.08833768 24288,6917.899,95.438,541.432,538.097,0.0
52879.0,STARLINK-4139,PAYLOAD,2022-11-21 20:50:02,15.08834701,0.000244,53.2202,18.2764,33.3525,326.762,-6.0431e-06,-3.85e-06,0.0,0 STARLINK-4139,1 52879U 22062BB  22325.86808102 -.00000385  00000-0 -60431-5 0  9997,2 52879  53.2202  18.2764 0002440  33.3525 326.7620 15.08834701 24331,6917.897,95.438,541.45,538.0740000000002,0.0
52879.0,STARLINK-4139,PAYLOAD,2022-11-22 03:11:34,15.08833173,0.0002259,53.2199,17.087,34.9354,325.1786,0.00013203,1.813e-05,0.0,0 STARLINK-4139,1 52879U 22062BB  22326.13303610  .00001813  00000-0  13203-3 0  9990,2 52879  53.2199  17.0870 0002259  34.9354 325.1786 15.08833173 24862,6917.901,95.438,541.3290000000002,538.2040000000002,0.0
52879.0,STARLINK-4139,PAYLOAD,2022-11-22 11:08:29,15.088399,0.0002348,53.2196,15.6004,33.5505,326.5635,0.00014752,2.060000000000001e-05,0.0,0 STARLINK-4139,1 52879U 22062BB  22326.46423281  .00002060  00000-0  14752-3 0  9998,2 52879  53.2196  15.6004 0002348  33.5505 326.5635 15.08839900 24428,6917.880999999999,95.438,541.37,538.121,0.0
52879.0,STARLINK-4139,PAYLOAD,2022-11-23 03:02:20,15.08843019,0.0002351,53.2199,12.6265,34.1155,325.9988,0.00011006,1.464e-05,0.0,0 STARLINK-4139,1 52879U 22062BB  22327.12663105  .00001464  00000-0  11006-3 0  9999,2 52879  53.2199  12.6265 0002351  34.1155 325.9988 15.08843019 25015,6917.871,95.437,541.363,538.11,0.0
52879.0,STARLINK-4139,PAYLOAD,2022-11-23 09:23:53,15.08843843,0.0002364,53.2199,11.4371,34.7334,325.3813,0.00010873,1.443e-05,0.0,0 STARLINK-4139,1 52879U 22062BB  22327.39159015  .00001443  00000-0  10873-3 0  9996,2 52879  53.2199  11.4371 0002364  34.7334 325.3813 15.08843843 24564,6917.869000000002,95.437,541.369,538.0980000000002,0.0
52879.0,STARLINK-4139,PAYLOAD,2022-11-24 02:53:08,15.08841568,0.0002408,53.2198,8.1673,35.6925,324.4227,-6.5264e-06,-3.92e-06,0.0,0 STARLINK-4139,1 52879U 22062BB  22328.12023454 -.00000392  00000-0 -65264-5 0  9995,2 52879  53.2198   8.1673 0002408  35.6925 324.4227 15.08841568 25164,6917.876,95.437,541.406,538.075,0.0
52879.0,STARLINK-4139,PAYLOAD,2022-11-24 09:14:40,15.08838575,0.0002465,53.22,6.9787,34.9749,325.1405,1.3344e-05,-7.6e-07,0.0,0 STARLINK-4139,1 52879U 22062BB  22328.38519566 -.00000076  00000-0  13344-4 0  9996,2 52879  53.2200   6.9787 0002465  34.9749 325.1405 15.08838575 24719,6917.885,95.438,541.455,538.044,0.0
52879.0,STARLINK-4139,PAYLOAD,2022-11-25 09:05:27,15.08841257,0.0002503,53.22,2.5182,35.3434,324.7724,-1.1304e-05,-4.68e-06,0.0,0 STARLINK-4139,1 52879U 22062BB  22329.37879376 -.00000468  00000-0 -11304-4 0  9994,2 52879  53.2200   2.5182 0002503  35.3434 324.7724 15.08841257 25350,6917.877,95.437,541.4730000000002,538.01,0.0
52879.0,STARLINK-4139,PAYLOAD,2022-11-26 12:07:00,15.0884811,0.0002598,53.2195,357.4623,35.7902,324.3264,1.96e-05,2.4e-07,0.0,0 STARLINK-4139,1 52879U 22062BB  22330.50486638  .00000024  00000-0  19600-4 0  9999,2 52879  53.2195 357.4623 0002598  35.7902 324.3264 15.08848110 25038,6917.856,95.437,541.518,537.923,0.0
52879.0,STARLINK-4139,PAYLOAD,2022-11-27 02:25:29,15.0884274,0.0002414,53.2194,354.7848,27.7432,332.3688,-7.816000000000001e-06,-4.13e-06,0.0,0 STARLINK-4139,1 52879U 22062BB  22331.10103016 -.00000413  00000-0 -78160-5 0  9993,2 52879  53.2194 354.7848 0002414  27.7432 332.3688 15.08842740 25618,6917.871999999999,95.437,541.4069999999998,538.067,0.0
52879.0,STARLINK-4139,PAYLOAD,2022-11-27 08:47:02,15.08833313,0.0002539,53.2204,353.5955,25.2906,334.821,-8.856e-05,-1.697e-05,0.0,0 STARLINK-4139,1 52879U 22062BB  22331.36599957 -.00001697  00000-0 -88560-4 0  9993,2 52879  53.2204 353.5955 0002539  25.2906 334.8210 15.08833313 25651,6917.901,95.438,541.5219999999998,538.009,0.0
52879.0,STARLINK-4139,PAYLOAD,2022-11-27 18:19:21,15.08835479,0.0002605,53.2206,351.8103,34.2164,325.8995,-6.0513e-05,-1.251e-05,0.0,0 STARLINK-4139,1 52879U 22062BB  22331.76343770 -.00001251  00000-0 -60513-4 0  9991,2 52879  53.2206 351.8103 0002605  34.2164 325.8995 15.08835479 25227,6917.894,95.438,541.561,537.957,0.0
52879.0,STARLINK-4139,PAYLOAD,2022-11-28 11:48:36,15.08830018,0.0002496,53.2206,348.5411,36.4884,323.6278,-6.8594e-05,-1.3800000000000008e-05,0.0,0 STARLINK-4139,1 52879U 22062BB  22332.49208475 -.00001380  00000-0 -68594-4 0  9994,2 52879  53.2206 348.5411 0002496  36.4884 323.6278 15.08830018 25823,6917.911,95.438,541.503,538.049,0.0
52879.0,STARLINK-4139,PAYLOAD,2022-11-28 18:10:08,15.08837388,0.000261,53.2208,347.3521,36.6909,323.4262,-6.8363e-05,-1.376e-05,0.0,0 STARLINK-4139,1 52879U 22062BB  22332.75704090 -.00001376  00000-0 -68363-4 0  9996,2 52879  53.2208 347.3521 0002610  36.6909 323.4262 15.08837388 25864,6917.888000000001,95.438,541.559,537.948,0.0
52879.0,STARLINK-4139,PAYLOAD,2022-11-29 05:17:52,15.08796458,0.0003263,53.2192,345.2739,9.8446,350.2609,1.7978e-05,-3e-08,0.0,0 STARLINK-4139,1 52879U 22062BB  22333.22074505 -.00000003  00000-0  17978-4 0  9991,2 52879  53.2192 345.2739 0003263   9.8446 350.2609 15.08796458 25446,6918.013000000001,95.44,542.136,537.621,0.0
52879.0,STARLINK-4139,PAYLOAD,2022-11-29 18:00:57,15.088155300000002,0.0002684,53.2196,342.8911,38.5588,321.5596,-7.4995e-05,-1.481e-05,0.0,0 STARLINK-4139,1 52879U 22062BB  22333.75066624 -.00001481  00000-0 -74995-4 0  9996,2 52879  53.2196 342.8911 0002684  38.5588 321.5596 15.08815530 26010,6917.955,95.439,541.677,537.9630000000002,0.0
52879.0,STARLINK-4139,PAYLOAD,2022-11-30 00:22:29,15.08820025,0.0002524,53.2195,341.7018,33.1223,326.9927,7.4373e-06,-1.7e-06,0.0,0 STARLINK-4139,1 52879U 22062BB  22334.01562330 -.00000170  00000-0  74373-5 0  9995,2 52879  53.2195 341.7018 0002524  33.1223 326.9927 15.08820025 26051,6917.941,95.439,541.553,538.06,0.0
52879.0,STARLINK-4139,PAYLOAD,2022-11-30 06:44:02,15.08819911,0.0002289,53.2192,340.5125,27.2106,332.9006,5.2299e-06,-2.05e-06,0.0,0 STARLINK-4139,1 52879U 22062BB  22334.28058562 -.00000205  00000-0  52299-5 0  9993,2 52879  53.2192 340.5125 0002289  27.2106 332.9006 15.08819911 25603,6917.941999999999,95.439,541.39,538.2230000000002,0.0
52879.0,STARLINK-4139,PAYLOAD,2022-11-30 17:51:43,15.08835113,0.0002557,53.2197,338.4315,39.1363,320.9814,0.00011353,1.519e-05,0.0,0 STARLINK-4139,1 52879U 22062BB  22334.74425658  .00001519  00000-0  11353-3 0  9990,2 52879  53.2197 338.4315 0002557  39.1363 320.9814 15.08835113 26168,6917.895,95.438,541.529,537.991,0.0
52879.0,STARLINK-4139,PAYLOAD,2022-12-01 00:13:15,15.08846787,0.0002226,53.22,337.2417,37.764,322.3508,2.7174e-05,1.44e-06,0.0,0 STARLINK-4139,1 52879U 22062BB  22335.00921067  .00000144  00000-0  27174-4 0  9997,2 52879  53.2200 337.2417 0002226  37.7640 322.3508 15.08846787 26208,6917.86,95.437,541.265,538.185,0.0
52879.0,STARLINK-4139,PAYLOAD,2022-12-01 09:45:34,15.08854113,0.0002835,53.2195,335.4577,33.9345,326.1828,0.00014608,2.038e-05,0.0,0 STARLINK-4139,1 52879U 22062BB  22335.40664376  .00002038  00000-0  14608-3 0  9999,2 52879  53.2195 335.4577 0002835  33.9345 326.1828 15.08854113 25774,6917.837,95.437,541.663,537.741,0.0
52879.0,STARLINK-4139,PAYLOAD,2022-12-01 17:42:30,15.08830418,0.0003134,53.2191,333.9713,38.5024,321.6192,0.00032332,4.86e-05,0.0,0 STARLINK-4139,1 52879U 22062BB  22335.73785649  .00004860  00000-0  32332-3 0  9991,2 52879  53.2191 333.9713 0003134  38.5024 321.6192 15.08830418 26310,6917.91,95.438,541.943,537.607,0.0
52879.0,STARLINK-4139,PAYLOAD,2022-12-02 00:04:02,15.08845897,0.0002859,53.2175,332.7797,41.4358,318.685,0.00013219,1.816e-05,0.0,0 STARLINK-4139,1 52879U 22062BB  22336.00281083  .00001816  00000-0  13219-3 0  9996,2 52879  53.2175 332.7797 0002859  41.4358 318.6850 15.08845897 26355,6917.861999999999,95.437,541.705,537.75,0.0
52879.0,STARLINK-4139,PAYLOAD,2022-12-02 09:36:21,15.08851852,0.0002636,53.2194,330.9973,38.7386,321.3794,0.000129,1.766e-05,0.0,0 STARLINK-4139,1 52879U 22062BB  22336.40024460  .00001766  00000-0  12900-3 0  9994,2 52879  53.2194 330.9973 0002636  38.7386 321.3794 15.08851852 25923,6917.844,95.437,541.533,537.886,0.0
52879.0,STARLINK-4139,PAYLOAD,2022-12-03 06:16:22,15.08849536,0.0002702,53.218,327.1299,40.5707,319.5487,-4.892e-05,-1.067e-05,0.0,0 STARLINK-4139,1 52879U 22062BB  22337.26136759 -.00001067  00000-0 -48920-4 0  9992,2 52879  53.2180 327.1299 0002702  40.5707 319.5487 15.08849536 26542,6917.851,95.437,541.585,537.847,0.0
